<?xml version="1.0" encoding="UTF-8"?>
<kml xmlns="http://www.opengis.net/kml/2.2"><Document>
<name>미야코지마 가이드 — 식당 &amp; 관광지</name>
<description><![CDATA[구글 마이맵(google.com/mymaps)에서 &quot;가져오기&quot;로 불러오면 구글맵 앱에서 볼 수 있습니다.<br>식당 53곳 · 관광지·거점 20곳]]></description>
<Style id="s_resort"><IconStyle><color>ff5b18c2</color><scale>1.1</scale><Icon><href>http://maps.google.com/mapfiles/kml/paddle/wht-blank.png</href></Icon></IconStyle></Style>
<Style id="s_city"><IconStyle><color>ff3f47a8</color><scale>1.1</scale><Icon><href>http://maps.google.com/mapfiles/kml/paddle/wht-blank.png</href></Icon></IconStyle></Style>
<Style id="s_east"><IconStyle><color>ff2b86b8</color><scale>1.1</scale><Icon><href>http://maps.google.com/mapfiles/kml/paddle/wht-blank.png</href></Icon></IconStyle></Style>
<Style id="s_south"><IconStyle><color>ff6d8a1f</color><scale>1.1</scale><Icon><href>http://maps.google.com/mapfiles/kml/paddle/wht-blank.png</href></Icon></IconStyle></Style>
<Style id="s_irabu"><IconStyle><color>ff3f65e0</color><scale>1.1</scale><Icon><href>http://maps.google.com/mapfiles/kml/paddle/wht-blank.png</href></Icon></IconStyle></Style>
<Style id="s_shop"><IconStyle><color>ff527d2f</color><scale>1.1</scale><Icon><href>http://maps.google.com/mapfiles/kml/paddle/wht-blank.png</href></Icon></IconStyle></Style>
<Style id="s_north"><IconStyle><color>ff83715b</color><scale>1.1</scale><Icon><href>http://maps.google.com/mapfiles/kml/paddle/wht-blank.png</href></Icon></IconStyle></Style>
<Style id="s_base"><IconStyle><color>ffa87f0e</color><scale>1.1</scale><Icon><href>http://maps.google.com/mapfiles/kml/paddle/wht-blank.png</href></Icon></IconStyle></Style>
<Folder><name>🍽 식당 · 리조트 내 (시기라)</name>
<Placemark><name>🍶 남풍 야타이무라</name><styleUrl>#s_resort</styleUrl><description><![CDATA[<b>무엇을</b> 포장마차 푸드코트 40종+ (오키나와요리·섬중화·아시안)<br><b>대표</b> 미야코 모즈쿠 초무침 · 미야코산 우미부도 · 시마도후 · 찬푸르 · 야키소바 · 카라아게<br><b>가격</b> 1인 1,000~1,999엔<br><b>영업</b> 17:00~22:00<br><b>메모</b> 예약 불필요 · 섬노래 라이브 매일 19:30~20:15 무료<br><br>일본어명: 南風屋台村<br>구글맵: https://www.google.com/maps/search/?api=1&query=%E5%8D%97%E9%A2%A8%E5%B1%8B%E5%8F%B0%E6%9D%91%20%E5%AE%AE%E5%8F%A4%E5%B3%B6%E5%B8%82]]></description><Point><coordinates>125.325284,24.720534,0</coordinates></Point></Placemark>
<Placemark><name>🔥 야타이무라 BBQ</name><styleUrl>#s_resort</styleUrl><description><![CDATA[<b>무엇을</b> 지붕 있는 BBQ장 (비 와도 가능)<br><b>대표</b> 현산 고기·해산물 BBQ<br><b>영업</b> 17:00~22:00 (L.O.21:30)<br><b>메모</b> 사전 온라인 예약제<br><br>일본어명: 南風屋台村BBQ<br>구글맵: https://www.google.com/maps/search/?api=1&query=%E5%8D%97%E9%A2%A8%E5%B1%8B%E5%8F%B0%E6%9D%91BBQ%20%E5%AE%AE%E5%8F%A4%E5%B3%B6%E5%B8%82]]></description><Point><coordinates>125.325290,24.720360,0</coordinates></Point></Placemark>
<Placemark><name>🍣 스시야노 카츠칸</name><styleUrl>#s_resort</styleUrl><description><![CDATA[<b>무엇을</b> 본격 에도마에 스시<br><b>대표</b> 오마카세 코스 · 미야코 흰살생선 회 · 구루쿤 가라아게<br><b>가격</b> 밤 8,000~9,999엔<br><b>메모</b> 예약 권장<br><br>일본어명: すし屋のかつ勘<br>구글맵: https://www.google.com/maps/search/?api=1&query=%E3%81%99%E3%81%97%E5%B1%8B%E3%81%AE%E3%81%8B%E3%81%A4%E5%8B%98%20%E5%AE%AE%E5%8F%A4%E5%B3%B6%E5%B8%82]]></description><Point><coordinates>125.324433,24.720278,0</coordinates></Point></Placemark>
<Placemark><name>🥩 숯불 야키니쿠 류큐엔</name><styleUrl>#s_resort</styleUrl><description><![CDATA[<b>무엇을</b> 숯불 야키니쿠 (호르몬 간판)<br><b>대표</b> 나미카루비 980엔 · 야키에비 700엔 · 오리온 생맥주 650엔 · 호르몬 세트<br><b>가격</b> 1인 3,000~4,000엔<br><b>메모</b> 리조트 통합 0980-77-8200 또는 프런트<br><br>일본어명: 炭火焼肉 琉宮苑<br>구글맵: https://www.google.com/maps/search/?api=1&query=%E7%84%BC%E8%82%89%20%E7%90%89%E5%AE%AE%E8%8B%91%20%E5%AE%AE%E5%8F%A4%E5%B3%B6%E5%B8%82]]></description><Point><coordinates>125.334265,24.720762,0</coordinates></Point></Placemark>
<Placemark><name>🍣 스시 소후</name><styleUrl>#s_resort</styleUrl><description><![CDATA[<b>무엇을</b> 리조트 내 고급 스시<br><b>대표</b> 오마카세<br><b>가격</b> 고급<br><b>메모</b> 예약 권장<br><br>일본어명: 鮨 蒼風<br>구글맵: https://www.google.com/maps/search/?api=1&query=%E9%AE%A8%20%E8%92%BC%E9%A2%A8%20%E5%AE%AE%E5%8F%A4%E5%B3%B6%E5%B8%82]]></description><Point><coordinates>125.334759,24.720712,0</coordinates></Point></Placemark>
<Placemark><name>🍤 텐푸라 텐쇼</name><styleUrl>#s_resort</styleUrl><description><![CDATA[<b>무엇을</b> 본격 튀김 전문<br><b>대표</b> 제철 튀김 코스<br><b>가격</b> 고급<br><b>메모</b> 예약 권장<br><br>일본어명: てんぷら 天翔 宮古島<br>구글맵: https://www.google.com/maps/search/?api=1&query=%E5%A4%A9%E3%81%B7%E3%82%89%E5%A4%A9%E7%BF%94%20%E5%AE%AE%E5%8F%A4%E5%B3%B6%E5%B8%82]]></description><Point><coordinates>125.334897,24.720704,0</coordinates></Point></Placemark>
<Placemark><name>🍜 소바마에 미야코</name><styleUrl>#s_resort</styleUrl><description><![CDATA[<b>무엇을</b> 소바 먹기 전 안주와 술을 즐기는 스타일<br><b>대표</b> 소바마에 5종 모둠 1,800엔 · 극태 멘마 산초조림 · 다시마키타마고 · 아구 돼지 샤브샤브 · 붓카케 소바<br><b>가격</b> 합리적<br><b>영업</b> 17:00~22:00 (L.O.21:30)<br><b>메모</b> ☎0980-74-7177 · 개실 있음<br><br>일본어명: 蕎麦前 宮古<br>구글맵: https://www.google.com/maps/search/?api=1&query=%E8%95%8E%E9%BA%A6%E5%89%8D%20%E5%AE%AE%E5%8F%A4%20%E5%AE%AE%E5%8F%A4%E5%B3%B6%E5%B8%82]]></description><Point><coordinates>125.334488,24.720700,0</coordinates></Point></Placemark>
<Placemark><name>🍶 류큐 이자카야 스바루</name><styleUrl>#s_resort</styleUrl><description><![CDATA[<b>무엇을</b> 오키나와 요리 이자카야<br><b>대표</b> 찬푸르·섬요리<br><br>일본어명: 琉球居酒屋 昴<br>구글맵: https://www.google.com/maps/search/?api=1&query=%E5%B1%85%E9%85%92%E5%B1%8B%20%E6%98%B4%20%E5%AE%AE%E5%8F%A4%E5%B3%B6%E5%B8%82]]></description><Point><coordinates>125.334618,24.720709,0</coordinates></Point></Placemark>
<Placemark><name>🍲 약선 훠궈 샤오페이양</name><styleUrl>#s_resort</styleUrl><description><![CDATA[<b>무엇을</b> 중국 약선 훠궈 체인<br><b>대표</b> 약선 육수 훠궈<br><br>일본어명: 薬膳火鍋 小肥羊<br>구글맵: https://www.google.com/maps/search/?api=1&query=%E7%81%AB%E9%8D%8B%20%E5%B0%8F%E8%82%A5%E7%BE%8A%20%E5%AE%AE%E5%8F%A4%E5%B3%B6%E5%B8%82]]></description><Point><coordinates>125.334027,24.720726,0</coordinates></Point></Placemark>
<Placemark><name>🍜 소바 이자카야 사이카이</name><styleUrl>#s_resort</styleUrl><description><![CDATA[<b>무엇을</b> 소바 + 이자카야<br><b>대표</b> 오키나와 소바·안주<br><b>메모</b> ⚠️ 셔틀이 16:30 이후만 정차<br><br>일본어명: 蕎麦居酒屋 彩海<br>구글맵: https://www.google.com/maps/search/?api=1&query=%E8%95%8E%E9%BA%A6%E5%B1%85%E9%85%92%E5%B1%8B%20%E5%BD%A9%E6%B5%B7%20%E5%AE%AE%E5%8F%A4%E5%B3%B6%E5%B8%82]]></description><Point><coordinates>125.337697,24.720451,0</coordinates></Point></Placemark>
<Placemark><name>🔥 철판야키 시기라 블루</name><styleUrl>#s_resort</styleUrl><description><![CDATA[⚠ 주소 기준 근사 위치<br><b>무엇을</b> 철판구이 (요리사가 눈앞에서)<br><b>대표</b> 미야코규 철판구이<br><b>가격</b> 요금 미공개 · 프런트 문의<br><b>메모</b> 전 좌석 금연<br><br>일본어명: 鉄板焼 シギラブルー<br>구글맵: https://www.google.com/maps/search/?api=1&query=%E9%89%84%E6%9D%BF%E7%84%BC%20%E3%82%B7%E3%82%AE%E3%83%A9%E3%83%96%E3%83%AB%E3%83%BC%20%E5%AE%AE%E5%8F%A4%E5%B3%B6%E5%B8%82]]></description><Point><coordinates>125.325439,24.719796,0</coordinates></Point></Placemark>
<Placemark><name>🔥 마라룽가 테판야키</name><styleUrl>#s_resort</styleUrl><description><![CDATA[<b>무엇을</b> 리조트 최상급 철판야키 (전임 야키테)<br><b>대표</b> 미야코규 철판 코스<br><b>가격</b> 1인 20,000~29,999엔<br><b>영업</b> 18 / 19 / 20시<br><b>메모</b> 시간 지정 완전예약제<br><br>일본어명: マラルンガ鉄板焼<br>구글맵: https://www.google.com/maps/search/?api=1&query=%E3%82%A2%E3%83%A9%E3%83%9E%E3%83%B3%E3%83%80%E5%92%8C%E7%90%89%E5%89%B5%E4%BD%9C%20%E5%AE%AE%E5%8F%A4%E5%B3%B6%E5%B8%82]]></description><Point><coordinates>125.336023,24.723237,0</coordinates></Point></Placemark>
<Placemark><name>🍽 뷔페 다이닝 포르토피노</name><styleUrl>#s_resort</styleUrl><description><![CDATA[⚠ 주소 기준 근사 위치<br><b>무엇을</b> 바다가 보이는 뷔페<br><b>대표</b> 섬 채소·고기·해산물 뷔페<br><br>일본어명: ブッフェダイニング ポルトフィーノ<br>구글맵: https://www.google.com/maps/search/?api=1&query=%E3%83%9D%E3%83%AB%E3%83%88%E3%83%95%E3%82%A3%E3%83%BC%E3%83%8E%20%E5%AE%AE%E5%8F%A4%E5%B3%B6%E5%B8%82]]></description><Point><coordinates>125.324863,24.719907,0</coordinates></Point></Placemark>
<Placemark><name>🍝 루나 롯사</name><styleUrl>#s_resort</styleUrl><description><![CDATA[<b>무엇을</b> 캐주얼 이탈리안 (시기라 비치)<br><b>대표</b> 파스타·피자<br><br>일본어명: ルナロッサ<br>구글맵: https://www.google.com/maps/search/?api=1&query=%E3%83%AB%E3%83%8A%E3%83%AD%E3%83%83%E3%82%B5%20%E5%AE%AE%E5%8F%A4%E5%B3%B6%E5%B8%82]]></description><Point><coordinates>125.341535,24.720842,0</coordinates></Point></Placemark>
<Placemark><name>🍝 스타더스트 가든</name><styleUrl>#s_resort</styleUrl><description><![CDATA[<b>무엇을</b> 피자 &amp; 파스타<br><b>메모</b> ⚠️ 셔틀 11:30~14:35 / 16:30 이후만 정차<br><br>일본어명: スターダストガーデン<br>구글맵: https://www.google.com/maps/search/?api=1&query=%E3%82%B9%E3%82%BF%E3%83%BC%E3%83%80%E3%82%B9%E3%83%88%E3%82%AC%E3%83%BC%E3%83%87%E3%83%B3%20%E5%AE%AE%E5%8F%A4%E5%B3%B6%E5%B8%82]]></description><Point><coordinates>125.338494,24.720264,0</coordinates></Point></Placemark>
<Placemark><name>🔥 HORIZON</name><styleUrl>#s_resort</styleUrl><description><![CDATA[<b>무엇을</b> 철판야키 · 샤브샤브 (고급)<br><b>대표</b> 철판 코스 · 샤브샤브<br><b>가격</b> 고급<br><br>일본어명: HORIZON<br>구글맵: https://www.google.com/maps/search/?api=1&query=HORIZON%20%E5%AE%AE%E5%8F%A4%E5%B3%B6%E5%B8%82]]></description><Point><coordinates>125.341668,24.720915,0</coordinates></Point></Placemark>
<Placemark><name>🎤 펑키 플라밍고</name><styleUrl>#s_resort</styleUrl><description><![CDATA[⚠ 주소 기준 근사 위치<br><b>무엇을</b> 라이브가 있는 체험형 레스토랑<br><b>대표</b> 라이브 + 다이닝<br><br>일본어명: ファンキーフラミンゴ<br>구글맵: https://www.google.com/maps/search/?api=1&query=%E3%83%95%E3%82%A1%E3%83%B3%E3%82%AD%E3%83%BC%E3%83%95%E3%83%A9%E3%83%9F%E3%83%B3%E3%82%B4%20%E5%AE%AE%E5%8F%A4%E5%B3%B6%E5%B8%82]]></description><Point><coordinates>125.334000,24.720704,0</coordinates></Point></Placemark>
</Folder>
<Folder><name>🍽 식당 · 시내 (히라라)</name>
<Placemark><name>🍣 카메즈시</name><styleUrl>#s_city</styleUrl><description><![CDATA[⚠ 주소 기준 근사 위치<br><b>무엇을</b> 현지인 노포 스시집 (가성비 런치)<br><b>대표</b> ⭐ 스시 런치 세트 — 니기리 + 튀김 + 차완무시 + 어탕 + 모즈쿠 초무침 + 디저트<br><b>가격</b> 런치 800~1,500엔<br><b>영업</b> 런치 11:30~14:00 (L.O.13:30) / 디너 17:00~22:00 · 부정기 휴무<br><b>메모</b> ☎0980-73-4660 · 35석 · 주차 몇 대<br><br>일본어명: 亀寿司<br>구글맵: https://www.google.com/maps/search/?api=1&query=%E4%BA%80%E5%AF%BF%E5%8F%B8%20%E5%AE%AE%E5%8F%A4%E5%B3%B6%E5%B8%82%E5%B9%B3%E8%89%AF%E4%B9%85%E8%B2%9D852-11]]></description><Point><coordinates>125.264500,24.799200,0</coordinates></Point></Placemark>
<Placemark><name>🍣 스시도코로 아사쿠사</name><styleUrl>#s_city</styleUrl><description><![CDATA[⚠ 주소 기준 근사 위치<br><b>무엇을</b> 쇼와 분위기 노포 스시 (저녁 전용)<br><b>대표</b> ⭐ 특상 니기리 1,700엔 / 상 1,200엔 · 타만·미바이·부다이를 소금+시콰사 · 아부리 미야코규 니기리 · 구루쿤 가라아게 850엔 · 시야가이·이라부차<br><b>가격</b> 1인 3,000~4,000엔<br><b>영업</b> 🔴 18:00~21:00 저녁만 · 부정기 휴무 · 재료 소진 시 조기 마감<br><b>메모</b> ☎0980-73-1021 · 테이크아웃 충실<br><br>일본어명: 鮨処 浅草<br>구글맵: https://www.google.com/maps/search/?api=1&query=%E9%AE%A8%20%E6%B5%85%E8%8D%89%20%E5%AE%AE%E5%8F%A4%E5%B3%B6%E5%B8%82%E5%B9%B3%E8%89%AF%E5%AD%97%E8%A5%BF%E9%87%8C826-6]]></description><Point><coordinates>125.281000,24.803600,0</coordinates></Point></Placemark>
<Placemark><name>🍣 스시쇼</name><styleUrl>#s_city</styleUrl><description><![CDATA[⚠ 주소 기준 근사 위치<br><b>무엇을</b> 번화가 뒷골목 동네 스시집<br><b>대표</b> ⭐ 니기리 특상 1,500엔 — 이라부지마 매입 지역 생선(타만·시이라·이라부차)<br><b>가격</b> 1인 2,000엔대<br><b>영업</b> 17:00~23:00 · 부정기 휴무<br><b>메모</b> ☎0980-72-0577<br><br>일본어명: 寿し正<br>구글맵: https://www.google.com/maps/search/?api=1&query=%E5%AF%BF%E3%81%97%E6%AD%A3%20%E5%AE%AE%E5%8F%A4%E5%B3%B6%E5%B8%82%E5%B9%B3%E8%89%AF%E8%A5%BF%E9%87%8C284]]></description><Point><coordinates>125.281100,24.804300,0</coordinates></Point></Placemark>
<Placemark><name>🍣 스시 겐야 미야코리큐</name><styleUrl>#s_city</styleUrl><description><![CDATA[⚠ 주소 기준 근사 위치<br><b>무엇을</b> 본격 스시 카이세키 (최상급)<br><b>대표</b> ⭐ 오마카세 카이세키 코스 15,000엔 — 도요스·오사카 공수 + 미야코산 마쿠부·아카진<br><b>가격</b> 1인 15,000엔<br><b>영업</b> 17:00~23:00 (최종입점 21:00)<br><b>메모</b> 완전예약제 · 잇큐·핫페퍼 온라인<br><br>일본어명: 鮨げん家 宮古離宮<br>구글맵: https://www.google.com/maps/search/?api=1&query=%E9%AE%A8%E3%81%92%E3%82%93%E5%AE%B6%20%E5%AE%AE%E5%8F%A4%E9%9B%A2%E5%AE%AE%20%E5%AE%AE%E5%8F%A4%E5%B3%B6%E5%B8%82]]></description><Point><coordinates>125.279200,24.805300,0</coordinates></Point></Placemark>
<Placemark><name>🍳 보부리</name><styleUrl>#s_city</styleUrl><description><![CDATA[⚠ 주소 기준 근사 위치<br><b>무엇을</b> 오키나와현 오코노미야키 타베로그 1위 · 미야코산 식재료<br><b>대표</b> ⭐ 오코노미야키 (홍고구마 섞은 특제 소스 — 미야코에서 여기서만) · 네기야키 · 야키소바 · 소바메시 · 미야코규 햄버그<br><b>가격</b> 런치 2,000~2,999엔 / 디너 5,000~5,999엔<br><b>영업</b> 런치 12:00~15:00 (L.O.14:00) / 디너 17:00~23:00<br><b>메모</b> ☎0980-79-6670 · 전 좌석 철판 · 개실 3 · 극장형 카운터석은 예약 필수 · 주차 6대<br><br>일본어명: 島の鉄板お好み焼き ぼぶり<br>구글맵: https://www.google.com/maps/search/?api=1&query=%E5%B3%B6%E3%81%AE%E9%89%84%E6%9D%BF%E3%81%8A%E5%A5%BD%E3%81%BF%E7%84%BC%E3%81%8D%20%E3%81%BC%E3%81%B6%E3%82%8A%20%E5%AE%AE%E5%8F%A4%E5%B3%B6%E5%B8%82%E5%B9%B3%E8%89%AF%E4%B9%85%E8%B2%9D721-7]]></description><Point><coordinates>125.265000,24.798500,0</coordinates></Point></Placemark>
<Placemark><name>🔥 테판야키 스테이크 슈</name><styleUrl>#s_city</styleUrl><description><![CDATA[⚠ 주소 기준 근사 위치<br><b>무엇을</b> 나고야·긴자에도 점포가 있는 철판 스테이크<br><b>대표</b> 미야코규 철판 스테이크<br><b>가격</b> 런치 3,000엔~ / 디너 10,000엔~<br><b>영업</b> 런치 12:00~14:30 (L.O.13:30) / 디너 17:30~22:30 (L.O.21:30)<br><b>메모</b> 잇큐닷컴 온라인 예약<br><br>일본어명: 鉄板焼ステーキ 集<br>구글맵: https://www.google.com/maps/search/?api=1&query=%E9%89%84%E6%9D%BF%E7%84%BC%E3%82%B9%E3%83%86%E3%83%BC%E3%82%AD%20%E9%9B%86%20%E5%AE%AE%E5%8F%A4%E5%B3%B6]]></description><Point><coordinates>125.280000,24.803000,0</coordinates></Point></Placemark>
<Placemark><name>🍳 오코노미 텟판 오긴</name><styleUrl>#s_city</styleUrl><description><![CDATA[⚠ 주소 기준 근사 위치<br><b>무엇을</b> 오코노미야키 전문<br><b>대표</b> 오코노미야키<br><b>가격</b> 1인 2,000~3,000엔<br><b>영업</b> 저녁<br><br>일본어명: お好み てっぱん をぎん<br>구글맵: https://www.google.com/maps/search/?api=1&query=%E3%81%8A%E5%A5%BD%E3%81%BF%20%E3%81%A6%E3%81%A3%E3%81%B1%E3%82%93%20%E3%82%92%E3%81%8E%E3%82%93%20%E5%AE%AE%E5%8F%A4%E5%B3%B6%E5%B8%82%E5%B9%B3%E8%89%AF%E8%A5%BF%E9%87%8C664-12]]></description><Point><coordinates>125.281500,24.804800,0</coordinates></Point></Placemark>
<Placemark><name>🔥 텟판야키 쥬쥬</name><styleUrl>#s_city</styleUrl><description><![CDATA[⚠ 주소 기준 근사 위치<br><b>무엇을</b> 철판구이 + 술<br><b>대표</b> 철판 요리<br><b>가격</b> 1인 3,000~4,000엔<br><b>영업</b> 저녁<br><b>메모</b> 스카이빌 건물 (엔노사토와 같은 건물)<br><br>일본어명: 鉄板焼じゅーじゅー<br>구글맵: https://www.google.com/maps/search/?api=1&query=%E9%89%84%E6%9D%BF%E7%84%BC%E3%81%98%E3%82%85%E3%83%BC%E3%81%98%E3%82%85%E3%83%BC%20%E5%AE%AE%E5%8F%A4%E5%B3%B6%E5%B8%82%E5%B9%B3%E8%89%AF%E8%A5%BF%E9%87%8C387]]></description><Point><coordinates>125.281300,24.805000,0</coordinates></Point></Placemark>
<Placemark><name>🥩 호르몬야</name><styleUrl>#s_city</styleUrl><description><![CDATA[⚠ 주소 기준 근사 위치<br><b>무엇을</b> 가성비 호르몬·야키니쿠 (&#x27;싸고 맛있다&#x27;가 모토)<br><b>대표</b> ⭐ 미야코규 · 하라미(안창살) · 오너가 시행착오 끝에 만든 오리지널 타레 · 생일 고기 플레이트<br><b>가격</b> 1인 3,000~4,000엔<br><b>영업</b> 17:00~22:30 (L.O.21:30) · 부정기 휴무<br><b>메모</b> ☎0980-79-8039 · 키즈스페이스 + 카운터석<br><br>일본어명: ホルモン家<br>구글맵: https://www.google.com/maps/search/?api=1&query=%E3%83%9B%E3%83%AB%E3%83%A2%E3%83%B3%E5%AE%B6%20%E5%AE%AE%E5%8F%A4%E5%B3%B6%E5%B8%82%E5%B9%B3%E8%89%AF%E5%AD%97%E8%A5%BF%E9%87%8C46-14]]></description><Point><coordinates>125.280029,24.804399,0</coordinates></Point></Placemark>
<Placemark><name>🥩 호르몬진 본점</name><styleUrl>#s_city</styleUrl><description><![CDATA[⚠ 주소 기준 근사 위치<br><b>무엇을</b> 본격 호르몬 (노포 도매상 직송)<br><b>대표</b> ⭐ 곱창·대창 · 비전의 타레 · 오사카 츠루하시에서 들여온 김치<br><b>가격</b> 1인 3,000~4,000엔<br><b>영업</b> 저녁<br><br>일본어명: ホルモン人 本店<br>구글맵: https://www.google.com/maps/search/?api=1&query=%E3%83%9B%E3%83%AB%E3%83%A2%E3%83%B3%E4%BA%BA%20%E6%9C%AC%E5%BA%97%20%E5%AE%AE%E5%8F%A4%E5%B3%B6%E5%B8%82]]></description><Point><coordinates>125.279000,24.800000,0</coordinates></Point></Placemark>
<Placemark><name>🥩 야키니쿠 곤베에</name><styleUrl>#s_city</styleUrl><description><![CDATA[⚠ 주소 기준 근사 위치<br><b>무엇을</b> 창업 40년+ 미야코지마 최초의 야키니쿠집 (쇼와 레트로)<br><b>대표</b> ⭐ 탄(우설) — 후기 압도적 1위 · 미야코규 · 호르몬<br><b>가격</b> 1인 3,000~5,000엔<br><b>영업</b> 저녁<br><br>일본어명: 焼肉 権兵衛<br>구글맵: https://www.google.com/maps/search/?api=1&query=%E7%84%BC%E8%82%89%20%E6%A8%A9%E5%85%B5%E8%A1%9B%20%E5%AE%AE%E5%8F%A4%E5%B3%B6%E5%B8%82]]></description><Point><coordinates>125.280500,24.803200,0</coordinates></Point></Placemark>
<Placemark><name>🥩 야키니쿠 나카오</name><styleUrl>#s_city</styleUrl><description><![CDATA[⚠ 주소 기준 근사 위치<br><b>무엇을</b> 미야코규 한 마리 통째 매입 (고급·개실)<br><b>대표</b> 희소 부위 모둠<br><b>가격</b> 1인 5,000~8,000엔<br><b>영업</b> 저녁<br><b>메모</b> ☎050-5870-4833 · 개실 완비<br><br>일본어명: 焼肉なかお<br>구글맵: https://www.google.com/maps/search/?api=1&query=%E7%84%BC%E8%82%89%E3%81%AA%E3%81%8B%E3%81%8A%20%E5%AE%AE%E5%8F%A4%E5%B3%B6%E5%B8%82%E5%B9%B3%E8%89%AF%E8%A5%BF%E9%87%8C]]></description><Point><coordinates>125.279700,24.804600,0</coordinates></Point></Placemark>
<Placemark><name>🥩 야키니쿠 키하치</name><styleUrl>#s_city</styleUrl><description><![CDATA[⚠ 주소 기준 근사 위치<br><b>무엇을</b> 희소 부위 전문<br><b>대표</b> ⭐ 미스지 · 쿠라시타 · 카이노미 — 5종 모둠 필수<br><b>가격</b> 1인 약 8,000엔<br><b>영업</b> 18:00~22:00 · 🔴 본관 월요일 / 별관 수요일 휴무<br><b>메모</b> 1주일 전 예약 권장<br><br>일본어명: 焼肉 喜八<br>구글맵: https://www.google.com/maps/search/?api=1&query=%E7%84%BC%E8%82%89%20%E5%96%9C%E5%85%AB%20%E5%AE%AE%E5%8F%A4%E5%B3%B6%E5%B8%82]]></description><Point><coordinates>125.281800,24.804000,0</coordinates></Point></Placemark>
<Placemark><name>🥩 우미카제</name><styleUrl>#s_city</styleUrl><description><![CDATA[⚠ 주소 기준 근사 위치<br><b>무엇을</b> 최고급 (에어덕트로 냄새 적음)<br><b>대표</b> 최고 랭크 미야코규 + 아구 돼지 + 오사카산 희귀 호르몬<br><b>가격</b> 1인 6,000~10,000엔<br><b>영업</b> 저녁<br><br>일본어명: 海風<br>구글맵: https://www.google.com/maps/search/?api=1&query=%E6%B5%B7%E9%A2%A8%20%E7%84%BC%E8%82%89%20%E5%AE%AE%E5%8F%A4%E5%B3%B6%E5%B8%82]]></description><Point><coordinates>125.282000,24.803500,0</coordinates></Point></Placemark>
<Placemark><name>🥩 야키니쿠 호루몬 갓쯔 미야코지마점</name><styleUrl>#s_city</styleUrl><description><![CDATA[⚠ 주소 기준 근사 위치<br><b>무엇을</b> 미야코지마에서 몇 안 되는 야키니쿠 뷔페 (소·돼지·닭 + 해산물)<br><b>대표</b> ⭐ 두꺼운 우설(厚切り牛タン) — 간판 · 츠보즈케 카루비(壷漬けカルビ) · 갓쯔 카루비 · 호르몬 모둠 · 모츠니 · 🟢 100분 야키니쿠 뷔페 (푸드 약 30종 + 소프트드링크 약 10종)<br><b>가격</b> 뷔페 3,380 / 3,980엔 (세금포함 3,718 / 4,345엔) · 단품 평균 4,000엔<br><b>영업</b> 17:00~23:00 (L.O.22:00) · 🔴 목요일 휴무<br><b>메모</b> ☎0980-72-1229 · 온라인 예약 가능 · 28석 · 平良下里760<br><br>일본어명: 焼肉ホルモン ガっつ 宮古島店<br>구글맵: https://www.google.com/maps/search/?api=1&query=%E7%84%BC%E8%82%89%E3%83%9B%E3%83%AB%E3%83%A2%E3%83%B3%20%E3%82%AC%E3%81%A3%E3%81%A4%20%E5%AE%AE%E5%8F%A4%E5%B3%B6%E5%BA%97]]></description><Point><coordinates>125.280200,24.796500,0</coordinates></Point></Placemark>
<Placemark><name>🍶 시켄바루</name><styleUrl>#s_city</styleUrl><description><![CDATA[⚠ 주소 기준 근사 위치<br><b>무엇을</b> 니시자토도리 약 70석, 매일 만석인 인기 이자카야<br><b>대표</b> ⭐ 미야코규 아부리 니기리 5점 1,500엔 · 섬새우 가라아게(생간수에서 건져 튀김) · 회 모둠 900엔~ · 구루쿤 가라아게 · 연골 소키 · 이카스미 요리<br><b>가격</b> 1인 4,000엔대<br><b>영업</b> 18:00~23:00 · 🔴 화요일 휴무<br><b>메모</b> ☎0980-79-0553 · 전화 예약만 · 🔴 현금만<br><br>일본어명: 肴処 志堅原<br>구글맵: https://www.google.com/maps/search/?api=1&query=%E8%82%B4%E5%87%A6%20%E5%BF%97%E5%A0%85%E5%8E%9F%20%E5%AE%AE%E5%8F%A4%E5%B3%B6%E5%B8%82%E5%B9%B3%E8%89%AF%E8%A5%BF%E9%87%8C236-1]]></description><Point><coordinates>125.280400,24.804100,0</coordinates></Point></Placemark>
<Placemark><name>🍶 우마리즈마</name><styleUrl>#s_city</styleUrl><description><![CDATA[⚠ 주소 기준 근사 위치<br><b>무엇을</b> 오키나와 고민가를 재현한 가옥 이자카야<br><b>대표</b> ⭐ 산신 라이브 18:30 / 21:00 (공연 중 손님도 함께 춤) · 아구 돼지 · 아와모리<br><b>가격</b> 1인 4,000~5,000엔<br><b>영업</b> 17:00~23:00<br><b>메모</b> ☎0980-79-0335 · 핫페퍼 온라인 예약 · 카드 가능<br><br>일본어명: うまりずま<br>구글맵: https://www.google.com/maps/search/?api=1&query=%E3%81%86%E3%81%BE%E3%82%8A%E3%81%9A%E3%81%BE%20%E5%AE%AE%E5%8F%A4%E5%B3%B6%E5%B8%82%E5%B9%B3%E8%89%AF%E8%A5%BF%E9%87%8C303]]></description><Point><coordinates>125.280600,24.804700,0</coordinates></Point></Placemark>
<Placemark><name>🍶 우사기야</name><styleUrl>#s_city</styleUrl><description><![CDATA[⚠ 주소 기준 근사 위치<br><b>무엇을</b> 섬노래(島唄) 라이브 전문<br><b>대표</b> ⭐ 섬노래 라이브 19:00 / 21:00 (차지 성인 700엔)<br><b>가격</b> 1인 4,000엔대<br><b>영업</b> 17:00~23:00<br><b>메모</b> ☎0980-79-0881 · 전화 또는 타베로그<br><br>일본어명: うさぎや<br>구글맵: https://www.google.com/maps/search/?api=1&query=%E3%81%86%E3%81%95%E3%81%8E%E3%82%84%20%E5%AE%AE%E5%8F%A4%E5%B3%B6%E5%B8%82%E5%B9%B3%E8%89%AF%E8%A5%BF%E9%87%8C224]]></description><Point><coordinates>125.280900,24.803900,0</coordinates></Point></Placemark>
<Placemark><name>🍶 데이리구치</name><styleUrl>#s_city</styleUrl><description><![CDATA[⚠ 주소 기준 근사 위치<br><b>무엇을</b> 주택가의 창작 요리 이자카야 (&#x27;좀처럼 예약이 안 잡히는 집&#x27;)<br><b>대표</b> 현지 식재료 창작 요리 · (니시자토도리점) 오징어먹물 야키소바 · 미야코규 멘치카츠<br><b>가격</b> 1인 3,000엔대<br><b>영업</b> 18:00~23:00 (L.O.22:00) · 🔴 화요일 휴무<br><b>메모</b> ☎0980-79-0197 · 전화 또는 인스타 DM · 카드 가능<br><br>일본어명: 居酒家でいりぐち<br>구글맵: https://www.google.com/maps/search/?api=1&query=%E5%B1%85%E9%85%92%E5%AE%B6%E3%81%A7%E3%81%84%E3%82%8A%E3%81%90%E3%81%A1%20%E5%AE%AE%E5%8F%A4%E5%B3%B6%E5%B8%82%E5%B9%B3%E8%89%AF%E4%B8%8B%E9%87%8C596-1]]></description><Point><coordinates>125.279121,24.797523,0</coordinates></Point></Placemark>
<Placemark><name>🍶 와토와</name><styleUrl>#s_city</styleUrl><description><![CDATA[⚠ 주소 기준 근사 위치<br><b>무엇을</b> 숯불구이 이자카야 (사진 잘 나오는 인테리어)<br><b>대표</b> ⭐ 명란 구운 주먹밥<br><b>가격</b> 1인 3,000~4,000엔<br><b>영업</b> 18:00~24:00<br><b>메모</b> ☎0980-73-7329 · 전화만 · 카드 가능<br><br>일본어명: わとわ<br>구글맵: https://www.google.com/maps/search/?api=1&query=%E3%82%8F%E3%81%A8%E3%82%8F%20%E5%AE%AE%E5%8F%A4%E5%B3%B6%E5%B8%82%E5%B9%B3%E8%89%AF%E4%B8%8B%E9%87%8C566-2]]></description><Point><coordinates>125.279500,24.797900,0</coordinates></Point></Placemark>
<Placemark><name>🍶 엔노사토</name><styleUrl>#s_city</styleUrl><description><![CDATA[⚠ 주소 기준 근사 위치<br><b>무엇을</b> 어른스러운 코스 중심 소료리집<br><b>대표</b> ⭐ 미야코규 타타키 + 샤부샤부 3,500엔 코스<br><b>가격</b> 1인 4,000엔대<br><b>영업</b> 17:00~24:00 · 🔴 일요일·격주 화요일 휴무<br><b>메모</b> ☎070-4217-7556 · 타베로그 예약 · 카드 가능<br><br>일본어명: 小料理 縁の郷<br>구글맵: https://www.google.com/maps/search/?api=1&query=%E5%B0%8F%E6%96%99%E7%90%86%20%E7%B8%81%E3%81%AE%E9%83%B7%20%E5%AE%AE%E5%8F%A4%E5%B3%B6%E5%B8%82%E5%B9%B3%E8%89%AF%E8%A5%BF%E9%87%8C387]]></description><Point><coordinates>125.281300,24.805000,0</coordinates></Point></Placemark>
<Placemark><name>🍶 시마오뎅 다카라</name><styleUrl>#s_city</styleUrl><description><![CDATA[⚠ 주소 기준 근사 위치<br><b>무엇을</b> 오뎅 + 오키나와 요리 + 오키나와 소바<br><b>대표</b> 오뎅 · 섬요리<br><b>가격</b> 1인 3,000~4,000엔<br><b>영업</b> 19:00~02:00<br><b>메모</b> 이른 시간은 만석 · 21시 이후 워크인 가능성 ↑<br><br>일본어명: 島おでんたから<br>구글맵: https://www.google.com/maps/search/?api=1&query=%E5%B3%B6%E3%81%8A%E3%81%A7%E3%82%93%E3%81%9F%E3%81%8B%E3%82%89%20%E5%AE%AE%E5%8F%A4%E5%B3%B6%E5%B8%82]]></description><Point><coordinates>125.280800,24.804500,0</coordinates></Point></Placemark>
<Placemark><name>🍶 이자카야 완</name><styleUrl>#s_city</styleUrl><description><![CDATA[⚠ 주소 기준 근사 위치<br><b>무엇을</b> 자가제 두부와 섬생선 회<br><b>대표</b> 자가제 시마도후 · 섬생선 회<br><b>메모</b> ☎0980-75-5959<br><br>일본어명: 居酒屋わん<br>구글맵: https://www.google.com/maps/search/?api=1&query=%E5%B1%85%E9%85%92%E5%B1%8B%E3%82%8F%E3%82%93%20%E5%AE%AE%E5%8F%A4%E5%B3%B6%E5%B8%82%E5%B9%B3%E8%89%AF%E4%B8%8B%E9%87%8C]]></description><Point><coordinates>125.279800,24.798500,0</coordinates></Point></Placemark>
<Placemark><name>🍜 고자소바야</name><styleUrl>#s_city</styleUrl><description><![CDATA[<b>무엇을</b> 1932년(쇼와 7년) 창업 · 90년 넘은 미야코소바 노포<br><b>대표</b> 미야코소바 · 소키소바<br><b>가격</b> 700~900엔<br><b>영업</b> 식당 11:00~16:00 (L.O.) / 매점 7:30~16:00 · 🔴 수요일 휴무<br><b>메모</b> 🔴 예약 일절 불가 (공식) · 주차 20대 · ☎0980-72-8304<br><br>일본어명: 古謝そば屋<br>구글맵: https://www.google.com/maps/search/?api=1&query=%E5%8F%A4%E8%AC%9D%E3%81%9D%E3%81%B0%E5%B1%8B%20%E5%AE%AE%E5%8F%A4%E5%B3%B6%E5%B8%82]]></description><Point><coordinates>125.284394,24.790508,0</coordinates></Point></Placemark>
<Placemark><name>🍜 멘야 서머 태양</name><styleUrl>#s_city</styleUrl><description><![CDATA[⚠ 주소 기준 근사 위치<br><b>무엇을</b> 창작 라멘<br><b>대표</b> ⭐ 미야코산 차새우(車海老) 소바<br><b>메모</b> ☎0980-79-0508<br><br>일본어명: 麺屋サマー太陽<br>구글맵: https://www.google.com/maps/search/?api=1&query=%E9%BA%BA%E5%B1%8B%E3%82%B5%E3%83%9E%E3%83%BC%E5%A4%AA%E9%99%BD%20%E5%AE%AE%E5%8F%A4%E5%B3%B6%E5%B8%82%E5%B9%B3%E8%89%AF%E8%A5%BF%E9%87%8C]]></description><Point><coordinates>125.281600,24.804200,0</coordinates></Point></Placemark>
<Placemark><name>🍔 다구스 버거</name><styleUrl>#s_city</styleUrl><description><![CDATA[<b>무엇을</b> 미야코지마 명물 수제버거<br><b>대표</b> 수제버거<br><b>가격</b> 1인 1,500~2,000엔<br><b>영업</b> 11:00~20:00<br><b>메모</b> 줄이 길고 정리권·호출 시스템<br><br>일본어명: ダグズ・バーガー 宮古島本店<br>구글맵: https://www.google.com/maps/search/?api=1&query=%E3%83%80%E3%82%B0%E3%82%BA%E3%83%90%E3%83%BC%E3%82%AC%E3%83%BC%20%E5%AE%AE%E5%8F%A4%E5%B3%B6]]></description><Point><coordinates>125.269476,24.799700,0</coordinates></Point></Placemark>
</Folder>
<Folder><name>🍽 식당 · 동부 (城辺)</name>
<Placemark><name>🍜 마루요시 식당</name><styleUrl>#s_east</styleUrl><description><![CDATA[⚠ 주소 기준 근사 위치<br><b>무엇을</b> 1961년 창업 로컬 노포 (현지인 단골)<br><b>대표</b> ⭐ 소키소바 — 거대한 본소키가 블록째, 채소와 마늘이 함께 · 삼마이니쿠소바 · 테비치소바 · 미야코소바 大450/小350엔<br><b>가격</b> 650~1,100엔<br><b>영업</b> 10:30 ~ 🔴 품절 시 종료 · 🔴 화·금요일 휴무<br><b>메모</b> 🔴 예약 불가 (밖 벤치 대기) · 🔴 현금만 · 주차 15대 · ☎0980-77-4211<br><br>일본어명: 丸吉食堂<br>구글맵: https://www.google.com/maps/search/?api=1&query=%E4%B8%B8%E5%90%89%E9%A3%9F%E5%A0%82%20%E5%AE%AE%E5%8F%A4%E5%B3%B6%E5%B8%82%E5%9F%8E%E8%BE%BA%E7%A0%82%E5%B7%9D975]]></description><Point><coordinates>125.352137,24.739874,0</coordinates></Point></Placemark>
</Folder>
<Folder><name>🍽 식당 · 남부 (上野)</name>
<Placemark><name>🍱 미츠야 식당</name><styleUrl>#s_south</styleUrl><description><![CDATA[⚠ 주소 기준 근사 위치<br><b>무엇을</b> 2025년 10월 오픈 · 창작 소바와 정식 (시기라 리조트에서 차 5분)<br><b>대표</b> ⭐ 미츠야 카츠동 (바삭한 카츠 + 달큰한 다시 + 반숙 계란) · 미야코 블랙 · 극상 미야코 츠케소바 · 모즈쿠/생강/네기 소바 · 고야찬푸르 정식 · 극상 라후테 정식 · 생선 마스니 정식<br><b>가격</b> 1,000엔 전후 · 밥 곱빼기 무료<br><b>영업</b> 11:00~15:00 · 정기휴무 불명<br><b>메모</b> ☎0980-79-8741 · 인스타 @miyako328shokudou 확인 · 흰 벽의 바다거북 실루엣이 표식<br><br>일본어명: みつや食堂<br>구글맵: https://www.google.com/maps/search/?api=1&query=%E3%81%BF%E3%81%A4%E3%82%84%E9%A3%9F%E5%A0%82%20%E5%AE%AE%E5%8F%A4%E5%B3%B6%E5%B8%82%E4%B8%8A%E9%87%8E%E9%87%8E%E5%8E%9F1121-2]]></description><Point><coordinates>125.321174,24.762610,0</coordinates></Point></Placemark>
</Folder>
<Folder><name>🍽 식당 · 이라부·시모지</name>
<Placemark><name>🐟 레스토랑 이리에</name><styleUrl>#s_irabu</styleUrl><description><![CDATA[<b>무엇을</b> 도구치노하마 근처 호텔 사우스아일랜드 내 노포 · 바다 전망<br><b>대표</b> ⭐ 이라부 해산물덮밥 1,580엔 — 요리장이 직접 고른 갓 잡은 해산물 최소 5종 · 고기야채소바 · 오늘의 추천 정식(구이·조림)<br><b>가격</b> 1,580엔~<br><b>영업</b> 런치 11:30~14:30 / 디너 17:30~22:00 · 🔴 셋째 수요일·1월 1일 휴무<br><b>메모</b> 주차장 있음 · 옆이 도구치노하마<br><br>일본어명: レストラン入江<br>구글맵: https://www.google.com/maps/search/?api=1&query=%E3%83%AC%E3%82%B9%E3%83%88%E3%83%A9%E3%83%B3%E5%85%A5%E6%B1%9F%20%E5%AE%AE%E5%8F%A4%E5%B3%B6%E5%B8%82%E4%BC%8A%E8%89%AF%E9%83%A8]]></description><Point><coordinates>125.173789,24.816536,0</coordinates></Point></Placemark>
<Placemark><name>🍜 이라부소바 카메</name><styleUrl>#s_irabu</styleUrl><description><![CDATA[⚠ 주소 기준 근사 위치<br><b>무엇을</b> 돌아가신 카메코 할머니 집을 개조한 고민가 · 수타 생면<br><b>대표</b> ⭐ 카메소바 900엔 (삼겹+소키+유시도후 종합판) · ⭐ 간소 이라부소바 830엔 (섬 특산 나마리부시) · 연골소키 850엔 · 유시도후 820엔 · 아사소바 780엔 · 삼마이니쿠 750엔<br><b>가격</b> 750~900엔<br><b>영업</b> 11:00~16:00 (L.O.15:30) · ⚠️ 휴무 정보 엇갈림<br><b>메모</b> ☎0980-78-5477 · 주차장 있음<br><br>일본어명: 伊良部そば かめ<br>구글맵: https://www.google.com/maps/search/?api=1&query=%E4%BC%8A%E8%89%AF%E9%83%A8%E3%81%9D%E3%81%B0%20%E3%81%8B%E3%82%81%20%E5%AE%AE%E5%8F%A4%E5%B3%B6%E5%B8%82%E4%BC%8A%E8%89%AF%E9%83%A8%E9%95%B7%E6%B5%9C251]]></description><Point><coordinates>125.173383,24.825650,0</coordinates></Point></Placemark>
<Placemark><name>☕ 블루터틀</name><styleUrl>#s_irabu</styleUrl><description><![CDATA[⚠ 주소 기준 근사 위치<br><b>무엇을</b> 절경 오션뷰 테라스 카페 &amp; 그릴<br><b>대표</b> 미야코 햄버그 카레 · 이탈리안 · 스테이크<br><b>가격</b> 1,500엔~<br><b>영업</b> 런치 11:00~17:00<br><b>메모</b> ☎0980-74-5333 · 테라스석은 문의<br><br>일본어명: Blue Turtle<br>구글맵: https://www.google.com/maps/search/?api=1&query=Blue%20Turtle%20%E5%AE%AE%E5%8F%A4%E5%B3%B6%E5%B8%82%E4%BC%8A%E8%89%AF%E9%83%A8]]></description><Point><coordinates>125.170000,24.820000,0</coordinates></Point></Placemark>
</Folder>
<Folder><name>🍽 식당 · 마트·도시락</name>
<Placemark><name>🛒 돈키호테 미야코지마점</name><styleUrl>#s_shop</styleUrl><description><![CDATA[⚠ 주소 기준 근사 위치<br><b>무엇을</b> 기념품 최강 스팟 · 해수욕·BBQ 용품도 방대<br><b>대표</b> 유키시오 친스코 · 흑설탕 · 블랙썬더 흑설탕맛 · 미야코지마 맥주 · 오리온 맥주 · 아와모리<br><b>가격</b> 유키시오 친스코(소) 650엔<br><b>영업</b> 🟢 08:00~02:00 · 연중무휴<br><b>메모</b> ☎0570-07-3511 · 平良西里1283 · 카드 OK<br><br>일본어명: ドン・キホーテ 宮古島店<br>구글맵: https://www.google.com/maps/search/?api=1&query=%E3%83%89%E3%83%B3%E3%83%BB%E3%82%AD%E3%83%9B%E3%83%BC%E3%83%86%20%E5%AE%AE%E5%8F%A4%E5%B3%B6%E5%BA%97]]></description><Point><coordinates>125.302300,24.793800,0</coordinates></Point></Placemark>
<Placemark><name>🛒 사쿠라야 쇼핑타운 미야코 (식품관)</name><styleUrl>#s_shop</styleUrl><description><![CDATA[<b>무엇을</b> 현지 채소·과일·선어가 풍부 · 도시락·반찬 + 기념품 코너<br><b>대표</b> 도시락 · 반찬 · 선어<br><b>영업</b> 09:00~22:00<br><b>메모</b> 카드 OK<br><br>일본어명: サンエーショッピングタウン宮古<br>구글맵: https://www.google.com/maps/search/?api=1&query=%E3%82%B5%E3%83%B3%E3%82%A8%E3%83%BC%E3%82%B7%E3%83%A7%E3%83%83%E3%83%94%E3%83%B3%E3%82%B0%E3%82%BF%E3%82%A6%E3%83%B3%E5%AE%AE%E5%8F%A4]]></description><Point><coordinates>125.286833,24.801843,0</coordinates></Point></Placemark>
<Placemark><name>🛒 맥스밸류 미야코 니시자토점</name><styleUrl>#s_shop</styleUrl><description><![CDATA[<b>무엇을</b> 24시간 마트 + 🏧 이온은행 ATM (해외카드 OK)<br><b>대표</b> 도시락 · 반찬 · 기념품<br><b>영업</b> 🟢 24시간<br><b>메모</b> 平良西里1290 · 돈키호테와 사실상 같은 자리 · 카드 OK<br><br>일본어명: マックスバリュ宮古西里店<br>구글맵: https://www.google.com/maps/search/?api=1&query=%E3%83%9E%E3%83%83%E3%82%AF%E3%82%B9%E3%83%90%E3%83%AA%E3%83%A5%E5%AE%AE%E5%8F%A4%E8%A5%BF%E9%87%8C%E5%BA%97]]></description><Point><coordinates>125.302784,24.793340,0</coordinates></Point></Placemark>
<Placemark><name>🛒 맥스밸류 미야코 미나미점</name><styleUrl>#s_shop</styleUrl><description><![CDATA[⚠ 주소 기준 근사 위치<br><b>무엇을</b> 24시간 마트 + 🏧 이온은행 ATM (1층 메인 출입구)<br><b>대표</b> 도시락 · 반찬 · 기념품<br><b>영업</b> 🟢 24시간<br><b>메모</b> 平良字松原631 · 카드 OK<br><br>일본어명: マックスバリュ宮古南店<br>구글맵: https://www.google.com/maps/search/?api=1&query=%E3%83%9E%E3%83%83%E3%82%AF%E3%82%B9%E3%83%90%E3%83%AA%E3%83%A5%E5%AE%AE%E5%8F%A4%E5%8D%97%E5%BA%97%20%E5%AE%AE%E5%8F%A4%E5%B3%B6%E5%B8%82]]></description><Point><coordinates>125.281000,24.789000,0</coordinates></Point></Placemark>
<Placemark><name>🍱 소라노야</name><styleUrl>#s_shop</styleUrl><description><![CDATA[⚠ 주소 기준 근사 위치<br><b>무엇을</b> 튀김 중심 도시락 전문점 · 현지인 단골<br><b>대표</b> 튀김 도시락 · 타코라이스<br><b>가격</b> 350엔~<br><b>메모</b> 히라라항 근처<br><br>일본어명: そらの屋<br>구글맵: https://www.google.com/maps/search/?api=1&query=%E3%81%9D%E3%82%89%E3%81%AE%E5%B1%8B%20%E5%AE%AE%E5%8F%A4%E5%B3%B6%E5%B8%82%E5%B9%B3%E8%89%AF]]></description><Point><coordinates>125.276000,24.805000,0</coordinates></Point></Placemark>
</Folder>
<Folder><name>📍 관광지·거점 · 시내 (히라라)</name>
<Placemark><name>🏖 파이나가마 비치</name><styleUrl>#s_city</styleUrl><description><![CDATA[<b>어떤 곳</b> 히라라 시내 한복판의 비치<br><b>포인트</b> 일몰 산책지로 인기<br><b>메모</b> 시기라 리조트에서 차 25분<br><br>일본어명: パイナガマビーチ<br>구글맵: https://www.google.com/maps/search/?api=1&query=%E3%83%91%E3%82%A4%E3%83%8A%E3%82%AC%E3%83%9E%E3%83%93%E3%83%BC%E3%83%81%20%E5%AE%AE%E5%8F%A4%E5%B3%B6%E5%B8%82]]></description><Point><coordinates>125.270904,24.802907,0</coordinates></Point></Placemark>
<Placemark><name>📷 스나야마 비치</name><styleUrl>#s_city</styleUrl><description><![CDATA[<b>어떤 곳</b> 모래 언덕을 넘으면 나타나는 천연 아치 바위<br><b>포인트</b> 미야코지마 사진의 대표 컷이 여기서 나옴<br><b>메모</b> 시기라 리조트에서 차 35분 · 모래 언덕을 넘어야 함<br><br>일본어명: 砂山ビーチ<br>구글맵: https://www.google.com/maps/search/?api=1&query=%E7%A0%82%E5%B1%B1%E3%83%93%E3%83%BC%E3%83%81%20%E5%AE%AE%E5%8F%A4%E5%B3%B6%E5%B8%82]]></description><Point><coordinates>125.280609,24.839385,0</coordinates></Point></Placemark>
</Folder>
<Folder><name>📍 관광지·거점 · 동부 (城辺)</name>
<Placemark><name>🤿 아라구스쿠 해안</name><styleUrl>#s_east</styleUrl><description><![CDATA[<b>어떤 곳</b> 바다거북을 만날 수 있는 스노클링 비치<br><b>포인트</b> 전체적으로 얕고 잔잔해 아이도 가능 · 흰동가리(니모)·후에다이 등 열대어, 산호 군락, 말미잘 · 오전 물이 잔잔할 때 거북 조우 확률 ↑<br><b>메모</b> 화장실·샤워·탈의실 · 매점(시즌 중) · 장비 렌탈(시즌 중) · 🟢 주차 무료 · ⚠️ 감시원은 여름만<br><br>일본어명: 新城海岸<br>구글맵: https://www.google.com/maps/search/?api=1&query=%E6%96%B0%E5%9F%8E%E6%B5%B7%E5%B2%B8%20%E5%AE%AE%E5%8F%A4%E5%B3%B6%E5%B8%82]]></description><Point><coordinates>125.423009,24.761350,0</coordinates></Point></Placemark>
<Placemark><name>🤿 요시노 해안</name><styleUrl>#s_east</styleUrl><description><![CDATA[<b>어떤 곳</b> 미야코 섬 최대의 열대어 서식지<br><b>포인트</b> 물고기 밀도가 섬에서 제일 — &#x27;수족관 같다&#x27;는 평 · 해안 입구부터 얕아 초보도 부담 없음<br><b>메모</b> 장비 렌탈 500엔(마스크·핀·구명조끼) · 파라솔/웻슈트 1,000엔 · 주차 500엔(시설사용료 포함) · 주차장→해변 무료 셔틀 3분 · 화장실·샤워·탈의실<br><br>일본어명: 吉野海岸<br>구글맵: https://www.google.com/maps/search/?api=1&query=%E5%90%89%E9%87%8E%E6%B5%B7%E5%B2%B8%20%E5%AE%AE%E5%8F%A4%E5%B3%B6%E5%B8%82]]></description><Point><coordinates>125.442525,24.748808,0</coordinates></Point></Placemark>
<Placemark><name>📷 히가시헨나자키</name><styleUrl>#s_east</styleUrl><description><![CDATA[<b>어떤 곳</b> 바다를 향해 2km 뻗은 곶<br><b>포인트</b> 일본 도로 100선 · 좌우 양쪽이 다 바다인 산책로 · 등대<br><b>메모</b> 시기라 리조트에서 차 25분<br><br>일본어명: 東平安名崎<br>구글맵: https://www.google.com/maps/search/?api=1&query=%E6%9D%B1%E5%B9%B3%E5%AE%89%E5%90%8D%E5%B4%8E%20%E5%AE%AE%E5%8F%A4%E5%B3%B6%E5%B8%82]]></description><Point><coordinates>125.469141,24.718813,0</coordinates></Point></Placemark>
</Folder>
<Folder><name>📍 관광지·거점 · 남부 (上野)</name>
<Placemark><name>🏖 요나하 마에하마</name><styleUrl>#s_south</styleUrl><description><![CDATA[<b>어떤 곳</b> &#x27;동양 최고의 백사장&#x27;이라 불리는 7km 해변<br><b>포인트</b> 입자가 고운 새하얀 모래와 코발트블루의 대비 · 쿠리마대교가 배경 · 🔴 스노클 기대 금지(모래바닥이라 물고기 거의 없음) · 수영·일광욕·SUP에 최적<br><b>메모</b> 파라솔 대여 약 2,000엔<br><br>일본어명: 与那覇前浜<br>구글맵: https://www.google.com/maps/search/?api=1&query=%E4%B8%8E%E9%82%A3%E8%A6%87%E5%89%8D%E6%B5%9C%20%E5%AE%AE%E5%8F%A4%E5%B3%B6%E5%B8%82]]></description><Point><coordinates>125.263011,24.735982,0</coordinates></Point></Placemark>
<Placemark><name>🚗 쿠리마대교</name><styleUrl>#s_south</styleUrl><description><![CDATA[<b>어떤 곳</b> 쿠리마지마로 건너가는 다리<br><b>포인트</b> 건너서 쿠리마 룩 전망대 → 마에하마 전경 파노라마<br><b>메모</b> 무료 · 전망대 30분이면 충분<br><br>일본어명: 来間大橋<br>구글맵: https://www.google.com/maps/search/?api=1&query=%E6%9D%A5%E9%96%93%E5%A4%A7%E6%A9%8B]]></description><Point><coordinates>125.264399,24.725853,0</coordinates></Point></Placemark>
<Placemark><name>🌿 이무갸 마리엔 파크</name><styleUrl>#s_south</styleUrl><description><![CDATA[<b>어떤 곳</b> 천연 입강(入江) 지형을 살린 마린파크<br><b>포인트</b> 파도가 거의 없고 물이 잔잔 · &#x27;일본 정원 같은 미감&#x27; · 30m 전망대에서 입강 전체 조망<br><b>메모</b> 산책로 한 바퀴 30~40분 · 시기라 리조트에서 5~10분 · 무료<br><br>일본어명: イムギャーマリンガーデン<br>구글맵: https://www.google.com/maps/search/?api=1&query=%E3%82%A4%E3%83%A0%E3%82%AE%E3%83%A3%E3%83%BC%E3%83%9E%E3%83%AA%E3%83%B3%E3%82%AC%E3%83%BC%E3%83%87%E3%83%B3%20%E5%AE%AE%E5%8F%A4%E5%B3%B6%E5%B8%82]]></description><Point><coordinates>125.357286,24.723680,0</coordinates></Point></Placemark>
<Placemark><name>🤿 시기라 비치</name><styleUrl>#s_south</styleUrl><description><![CDATA[<b>어떤 곳</b> 시기라 리조트 바로 앞 · 미야코 최고 인기 비치 중 하나<br><b>포인트</b> 스노클링 가능 · 바다거북이 나올 때도 · 체험 다이빙·SUP·패러세일링<br><b>메모</b> 🟢 비치하우스 — 시기라 숙박자 샤워 등 무료(비숙박자 1,000엔) · 데크체어·파라솔 대여 · 시기라 리조트에서 차 5분<br><br>일본어명: シギラビーチ<br>구글맵: https://www.google.com/maps/search/?api=1&query=%E3%82%B7%E3%82%AE%E3%83%A9%E3%83%93%E3%83%BC%E3%83%81%20%E5%AE%AE%E5%8F%A4%E5%B3%B6%E5%B8%82]]></description><Point><coordinates>125.340759,24.720093,0</coordinates></Point></Placemark>
<Placemark><name>♨️ 시기라 황금온천</name><styleUrl>#s_south</styleUrl><description><![CDATA[<b>어떤 곳</b> 지하 1,250m에서 솟는 황금색 천연온천<br><b>포인트</b> 노천탕 · 전망탕 · 정글풀 · 에스테 · 사우나 · 카페 모리노이즈미<br><b>메모</b> 11:00~22:00(최종입관) · 성인 2,000엔 → 🟢 시기라 숙박자 1,600엔 · 셔틀 6분<br><br>일본어명: シギラ黄金温泉<br>구글맵: https://www.google.com/maps/search/?api=1&query=%E3%82%B7%E3%82%AE%E3%83%A9%E9%BB%84%E9%87%91%E6%B8%A9%E6%B3%89]]></description><Point><coordinates>125.334810,24.719949,0</coordinates></Point></Placemark>
<Placemark><name>☔ 우에노 독일문화촌</name><styleUrl>#s_south</styleUrl><description><![CDATA[<b>어떤 곳</b> 독일풍 테마파크 (리조트 내)<br><b>포인트</b> 박물관·전망대 · 비 오는 날 대안<br><b>메모</b> 셔틀 3분<br><br>일본어명: うえのドイツ文化村<br>구글맵: https://www.google.com/maps/search/?api=1&query=%E3%81%86%E3%81%88%E3%81%AE%E3%83%89%E3%82%A4%E3%83%84%E6%96%87%E5%8C%96%E6%9D%91]]></description><Point><coordinates>125.324253,24.719442,0</coordinates></Point></Placemark>
</Folder>
<Folder><name>📍 관광지·거점 · 이라부·시모지</name>
<Placemark><name>📷 토리이케</name><styleUrl>#s_irabu</styleUrl><description><![CDATA[<b>어떤 곳</b> 국가 지정 명승·천연기념물인 쌍둥이 싱크홀<br><b>포인트</b> 바다 쪽 이치노이케 직경 75m·수심 45m / 육지 쪽 니노이케 직경 55m·수심 25m · 직경 약 10m 해저 동굴로 바다와 연결돼 조수에 따라 수심이 변함 · 위에서 내려다보는 짙은 청록색이 인스타 성지<br><b>메모</b> 주차 50대 · 전망대까지 도보 5분 · 다이빙 성지(수중 &#x27;마왕의 궁전&#x27;) · 17END 비치까지 북쪽 700m(차) 또는 도보 1.5km·20분<br><br>일본어명: 通り池<br>구글맵: https://www.google.com/maps/search/?api=1&query=%E9%80%9A%E3%82%8A%E6%B1%A0%20%E5%AE%AE%E5%8F%A4%E5%B3%B6%E5%B8%82]]></description><Point><coordinates>125.136828,24.824260,0</coordinates></Point></Placemark>
<Placemark><name>🤿 나카노시마 비치</name><styleUrl>#s_irabu</styleUrl><description><![CDATA[<b>어떤 곳</b> 파도 없는 만 지형의 야생 스노클 포인트<br><b>포인트</b> 산호 군락과 열대어가 해변에서 걸어 들어가면 바로 · 미야코에서 손꼽히는 비치 엔트리 포인트<br><b>메모</b> 🔴 화장실·샤워·탈의실 전부 없음 · 렌탈샵 없음 · 수건 필수 · 주차 도로변 10~15대(무료)<br><br>일본어명: 中の島ビーチ (カヤッファ)<br>구글맵: https://www.google.com/maps/search/?api=1&query=%E4%B8%AD%E3%81%AE%E5%B3%B6%E6%B5%B7%E5%B2%B8%20%E5%AE%AE%E5%8F%A4%E5%B3%B6%E5%B8%82]]></description><Point><coordinates>125.145141,24.813650,0</coordinates></Point></Placemark>
<Placemark><name>🏖 도구치노하마</name><styleUrl>#s_irabu</styleUrl><description><![CDATA[<b>어떤 곳</b> 이라부 서안의 고운 백사장<br><b>포인트</b> 레스토랑 이리에 바로 옆 · 식후 산책 5분<br><b>메모</b> 주차 있음<br><br>일본어명: 渡口の浜<br>구글맵: https://www.google.com/maps/search/?api=1&query=%E6%B8%A1%E5%8F%A3%E3%81%AE%E6%B5%9C%20%E5%AE%AE%E5%8F%A4%E5%B3%B6%E5%B8%82]]></description><Point><coordinates>125.180000,24.811545,0</coordinates></Point></Placemark>
<Placemark><name>📷 사와다노하마</name><styleUrl>#s_irabu</styleUrl><description><![CDATA[<b>어떤 곳</b> 거대한 바위들이 흩어진 독특한 해변<br><b>포인트</b> 이라부 서안 일몰 명소 · 1771년 쓰나미가 밀어올린 바위<br><br>일본어명: 佐和田の浜<br>구글맵: https://www.google.com/maps/search/?api=1&query=%E4%BD%90%E5%92%8C%E7%94%B0%E3%81%AE%E6%B5%9C%20%E5%AE%AE%E5%8F%A4%E5%B3%B6%E5%B8%82]]></description><Point><coordinates>125.159990,24.840512,0</coordinates></Point></Placemark>
<Placemark><name>🛫 17END 비치</name><styleUrl>#s_irabu</styleUrl><description><![CDATA[<b>어떤 곳</b> 시모지시마 공항 활주로 북단 — 간조 때만 드러나는 '환상의 백사장'<br><b>포인트</b> 간조 때 바다 쪽으로 걸어 들어가는 원지 얕은 백사장 · 미야코 최고 투명도로 꼽히는 에메랄드 그라데이션 · 활주로 연장선이라 운 좋으면 저공 비행기 · 파도 없어 얕은 물놀이 가능 · 일몰<br><b>메모</b> 🟢 토리이케 주차장에서 북쪽으로 700m는 차로 갈 수 있음 · 🔴 그 앞 바리케이드부터 차량 통행금지(2019년 3월~) — 바리케이드 앞 무료 주차 7~8대뿐이라 성수기엔 만차 · 거기서 해변까지 도보 0.7km·9분 · 🟢 만차면 토리이케(주차 50대)에 세우고 그대로 걸어도 됨 1.5km·도보 20분 (왕복 40분) · 🔴 동쪽 공항터미널 쪽 진입은 1.5km·20분이라 비추천 · 🔴 화장실·샤워·매점·그늘·감시원 전부 없음 — 공항 터미널에서 화장실 해결하고 물 챙길 것 · 간조 시각 확인 필수<br><br>일본어명: 17ENDビーチ (下地島空港17エンド)<br>구글맵: https://www.google.com/maps/search/?api=1&query=17END%E3%83%93%E3%83%BC%E3%83%81%20%E5%AE%AE%E5%8F%A4%E5%B3%B6%E5%B8%82]]></description><Point><coordinates>125.138075,24.837202,0</coordinates></Point></Placemark>
<Placemark><name>🚗 이라부대교</name><styleUrl>#s_irabu</styleUrl><description><![CDATA[<b>어떤 곳</b> 통행료 없는 일본 최장 다리 3,540m<br><b>포인트</b> 그라데이션 바다 위를 달림 · 중간 주차장에서 사진<br><b>메모</b> 무료 · 주차장 있음<br><br>일본어명: 伊良部大橋<br>구글맵: https://www.google.com/maps/search/?api=1&query=%E4%BC%8A%E8%89%AF%E9%83%A8%E5%A4%A7%E6%A9%8B]]></description><Point><coordinates>125.239459,24.796706,0</coordinates></Point></Placemark>
</Folder>
<Folder><name>📍 관광지·거점 · 북부</name>
<Placemark><name>📷 니시헨나자키</name><styleUrl>#s_north</styleUrl><description><![CDATA[<b>어떤 곳</b> 섬 북쪽 끝의 곶<br><b>포인트</b> 등대와 풍력발전기가 늘어선 초원 · 이케마대교 조망<br><br>일본어명: 西平安名崎<br>구글맵: https://www.google.com/maps/search/?api=1&query=%E8%A5%BF%E5%B9%B3%E5%AE%89%E5%90%8D%E5%B4%8E%20%E5%AE%AE%E5%8F%A4%E5%B3%B6%E5%B8%82]]></description><Point><coordinates>125.255214,24.910234,0</coordinates></Point></Placemark>
</Folder>
<Folder><name>📍 관광지·거점 · 거점·공항</name>
<Placemark><name>✈️ 시모지시마공항</name><styleUrl>#s_base</styleUrl><description><![CDATA[<b>어떤 곳</b> 진에어 직항 도착·출발 공항<br><b>포인트</b> 인천 직항(진에어)이 내리는 공항 · 시내까지 이라부대교 건너 35~40분 · 시기라 리조트까지 약 50분<br><b>메모</b> ⚠️ 류큐은행 ATM이 2026/8/27 종료 — 공항 ATM 기대 금지<br><br>일본어명: みやこ下地島空港<br>구글맵: https://www.google.com/maps/search/?api=1&query=%E4%B8%8B%E5%9C%B0%E5%B3%B6%E7%A9%BA%E6%B8%AF]]></description><Point><coordinates>125.146841,24.824533,0</coordinates></Point></Placemark>
<Placemark><name>🚗 마이렌터카 시모지점</name><styleUrl>#s_base</styleUrl><description><![CDATA[⚠ 주소 기준 근사 위치<br><b>어떤 곳</b> 렌터카 수령·반납 (공항 송영형)<br><b>포인트</b> 공항 무료 송영형 · 패밀리마트 미야코이라부점 맞은편<br><b>메모</b> ☎080-6486-7511 (한국에서 +81-80-6486-7511) · 09:00~18:00 · 공항 무료 송영<br><br>일본어명: MYRENTCAR 下地島空港店<br>구글맵: https://www.google.com/maps/search/?api=1&query=%E5%AE%AE%E5%8F%A4%E5%B3%B6%E5%B8%82%E4%BC%8A%E8%89%AF%E9%83%A8%E5%AD%97%E5%89%8D%E9%87%8C%E6%B7%BB1266-3]]></description><Point><coordinates>125.208156,24.844569,0</coordinates></Point></Placemark>
<Placemark><name>🏠 웰니스 빌라 브리사</name><styleUrl>#s_base</styleUrl><description><![CDATA[<b>어떤 곳</b> 시기라 세븐마일즈 리조트 내 콘도미니엄<br><b>포인트</b> 전 객실 미니키친·전자레인지·냉장고·조리도구 · 실내외 풀 · 무료 주차·와이파이<br><b>메모</b> 리조트 순환셔틀 11번 정류장 · 上野宮国<br><br>일본어명: ウェルネスヴィラ ブリッサ<br>구글맵: https://www.google.com/maps/search/?api=1&query=%E3%83%9B%E3%83%86%E3%83%AB%20%E3%82%A6%E3%82%A7%E3%83%AB%E3%83%8D%E3%82%B9%E3%83%B4%E3%82%A3%E3%83%A9%E3%83%96%E3%83%AA%E3%83%83%E3%82%B5]]></description><Point><coordinates>125.319171,24.716694,0</coordinates></Point></Placemark>
</Folder>
</Document></kml>
